NORAD_CAT_ID,OBJECT_NAME,OBJECT_TYPE,EPOCH,MEAN_MOTION,ECCENTRICITY,INCLINATION,RA_OF_ASC_NODE,ARG_OF_PERICENTER,MEAN_ANOMALY,BSTAR,MEAN_MOTION_DOT,MEAN_MOTION_DDOT,TLE_LINE0,TLE_LINE1,TLE_LINE2,SEMIMAJOR_AXIS,PERIOD,APOGEE,PERIGEE,DECAYED
53434.0,STARLINK-4498,PAYLOAD,2023-12-10 21:00:47,15.08841436,0.0001356,53.2166,184.1298,90.7907,269.3241,7.3992e-05,8.9e-06,0.0,0 STARLINK-4498,1 53434U 22097AY  23344.87554777  .00000890  00000-0  73992-4 0  9996,2 53434  53.2166 184.1298 0001356  90.7907 269.3241 15.08841436 75036,6917.876,95.437,540.679,538.803,0.0
53434.0,STARLINK-4498,PAYLOAD,2023-12-11 19:16:11,15.08840227,0.0001557,53.2163,179.9685,74.2423,285.8741,6.4959e-05,7.46e-06,0.0,0 STARLINK-4498,1 53434U 22097AY  23345.80291112  .00000746  00000-0  64959-4 0  9994,2 53434  53.2163 179.9685 0001557  74.2423 285.8741 15.08840227 74683,6917.88,95.438,540.822,538.668,0.0
53434.0,STARLINK-4498,PAYLOAD,2023-12-11 20:51:34,15.08840291,0.0001632,53.2166,179.6707,71.2431,288.8738,5.9889e-05,6.65e-06,0.0,0 STARLINK-4498,1 53434U 22097AY  23345.86915087  .00000665  00000-0  59889-4 0  9990,2 53434  53.2166 179.6707 0001632  71.2431 288.8738 15.08840291 75184,6917.879,95.438,540.873,538.616,0.0
53434.0,STARLINK-4498,PAYLOAD,2023-12-12 19:06:58,15.08843361,0.0001544,53.2162,175.5091,76.0593,284.0571,8.1443e-05,1.009e-05,0.0,0 STARLINK-4498,1 53434U 22097AY  23346.79650810  .00001009  00000-0  81443-4 0  9997,2 53434  53.2162 175.5091 0001544  76.0593 284.0571 15.08843361 75325,6917.87,95.437,540.803,538.667,0.0
53434.0,STARLINK-4498,PAYLOAD,2023-12-13 18:57:45,15.08843832,0.0001375,53.216,171.0457,88.9732,271.1417,6.5048e-05,7.48e-06,0.0,0 STARLINK-4498,1 53434U 22097AY  23347.79010552  .00000748  00000-0  65048-4 0  9993,2 53434  53.2160 171.0457 0001375  88.9732 271.1417 15.08843832 74989,6917.869,95.437,540.685,538.782,0.0
53434.0,STARLINK-4498,PAYLOAD,2023-12-14 17:13:09,15.08838212,0.0001421,53.2161,166.8834,98.8867,261.2286,1.293e-05,-8.2e-07,0.0,0 STARLINK-4498,1 53434U 22097AY  23348.71747004 -.00000082  00000-0  12930-4 0  9999,2 53434  53.2161 166.8834 0001421  98.8867 261.2286 15.08838212 75129,6917.886,95.438,540.734,538.768,0.0
53434.0,STARLINK-4498,PAYLOAD,2023-12-15 17:03:56,15.0883847,0.0001459,53.216,162.4221,108.4715,251.6436,4.0575e-05,3.58e-06,0.0,0 STARLINK-4498,1 53434U 22097AY  23349.71106881  .00000358  00000-0  40575-4 0  9993,2 53434  53.2160 162.4221 0001459 108.4715 251.6436 15.08838470 75767,6917.885,95.438,540.759,538.741,0.0
53434.0,STARLINK-4498,PAYLOAD,2023-12-16 16:54:43,15.08838138,0.0001322,53.2162,157.9616,106.1796,253.9342,6.5348e-05,7.52e-06,0.0,0 STARLINK-4498,1 53434U 22097AY  23350.70467105  .00000752  00000-0  65348-4 0  9996,2 53434  53.2162 157.9616 0001322 106.1796 253.9342 15.08838138 75424,6917.886,95.438,540.666,538.837,0.0
53434.0,STARLINK-4498,PAYLOAD,2023-12-17 15:10:07,15.08835469,0.0001166,53.2164,153.7996,87.9932,272.1194,5.7903e-05,6.34e-06,0.0,0 STARLINK-4498,1 53434U 22097AY  23351.63203621  .00000634  00000-0  57903-4 0  9997,2 53434  53.2164 153.7996 0001166  87.9932 272.1194 15.08835469 76057,6917.894,95.438,540.566,538.953,0.0
53434.0,STARLINK-4498,PAYLOAD,2023-12-17 18:20:54,15.08837021,0.0001177,53.2158,153.2062,87.87,272.2427,6.7724e-05,7.9e-06,0.0,0 STARLINK-4498,1 53434U 22097AY  23351.76451541  .00000790  00000-0  67724-4 0  9992,2 53434  53.2158 153.2062 0001177  87.8700 272.2427 15.08837021 75586,6917.889,95.438,540.569,538.94,0.0
53434.0,STARLINK-4498,PAYLOAD,2023-12-18 13:25:31,15.08841632,0.0001174,53.2158,149.6374,87.4379,272.6748,0.00011158,1.488e-05,0.0,0 STARLINK-4498,1 53434U 22097AY  23352.55939224  .00001488  00000-0  11158-3 0  9993,2 53434  53.2158 149.6374 0001174  87.4379 272.6748 15.08841632 76197,6917.875,95.437,540.553,538.928,0.0
53434.0,STARLINK-4498,PAYLOAD,2023-12-18 18:11:40,15.08845371,0.0001208,53.2159,148.7451,86.3394,273.7736,0.00013904,1.926e-05,0.0,0 STARLINK-4498,1 53434U 22097AY  23352.75810948  .00001926  00000-0  13904-3 0  9994,2 53434  53.2159 148.7451 0001208  86.3394 273.7736 15.08845371 75739,6917.864,95.437,540.565,538.893,0.0
53434.0,STARLINK-4498,PAYLOAD,2023-12-19 14:51:41,15.08840731,0.000126,53.215,144.8796,83.2071,276.9065,6.6039e-05,7.63e-06,0.0,0 STARLINK-4498,1 53434U 22097AY  23353.61923350  .00000763  00000-0  66039-4 0  9998,2 53434  53.2150 144.8796 0001260  83.2071 276.9065 15.08840731 76359,6917.878,95.438,540.615,538.872,0.0
53434.0,STARLINK-4498,PAYLOAD,2023-12-19 18:02:27,15.08843746,0.0001277,53.2154,144.2859,80.4778,279.6359,9.6468e-05,1.248e-05,0.0,0 STARLINK-4498,1 53434U 22097AY  23353.75171217  .00001248  00000-0  96468-4 0  9998,2 53434  53.2154 144.2859 0001277  80.4778 279.6359 15.08843746 75880,6917.869,95.437,540.617,538.851,0.0
53434.0,STARLINK-4498,PAYLOAD,2023-12-20 16:17:52,15.08841698,0.0001221,53.2153,140.1233,80.7832,279.3299,2.4271e-05,9.8e-07,0.0,0 STARLINK-4498,1 53434U 22097AY  23354.67907563  .00000098  00000-0  24271-4 0  9996,2 53434  53.2153 140.1233 0001221  80.7832 279.3299 15.08841698 76024,6917.875,95.437,540.585,538.896,0.0
53434.0,STARLINK-4498,PAYLOAD,2023-12-21 14:33:15,15.08842562,0.0001361,53.2166,135.9588,69.9419,290.1719,8.4284e-05,1.054e-05,0.0,0 STARLINK-4498,1 53434U 22097AY  23355.60643457  .00001054  00000-0  84284-4 0  9992,2 53434  53.2166 135.9588 0001361  69.9419 290.1719 15.08842562 76656,6917.873,95.437,540.679,538.796,0.0
53434.0,STARLINK-4498,PAYLOAD,2023-12-21 16:08:38,15.08844673,0.0001352,53.2166,135.6606,75.3148,284.7994,7.8779e-05,9.66e-06,0.0,0 STARLINK-4498,1 53434U 22097AY  23355.67267327  .00000966  00000-0  78779-4 0  9990,2 53434  53.2166 135.6606 0001352  75.3148 284.7994 15.08844673 76664,6917.866,95.437,540.666,538.796,0.0
53434.0,STARLINK-4498,PAYLOAD,2023-12-22 14:24:03,15.08840449,0.0001304,53.2169,131.4976,76.2495,283.8642,7.0484e-05,8.34e-06,0.0,0 STARLINK-4498,1 53434U 22097AY  23356.60003714  .00000834  00000-0  70484-4 0  9991,2 53434  53.2169 131.4976 0001304  76.2495 283.8642 15.08840449 76806,6917.879,95.438,540.646,538.842,0.0
53434.0,STARLINK-4498,PAYLOAD,2023-12-22 15:59:26,15.08842643,0.0001315,53.2171,131.2,76.084,284.0299,8.389e-05,1.048e-05,0.0,0 STARLINK-4498,1 53434U 22097AY  23356.66627522  .00001048  00000-0  83890-4 0  9999,2 53434  53.2171 131.2000 0001315  76.0840 284.0299 15.08842643 76325,6917.872,95.437,540.647,538.828,0.0
53434.0,STARLINK-4498,PAYLOAD,2023-12-23 09:28:41,15.08837904,0.0001295,53.2168,127.9297,85.9,274.214,-6.2625e-06,-3.88e-06,0.0,0 STARLINK-4498,1 53434U 22097AY  23357.39492159 -.00000388  00000-0 -62625-5 0  9998,2 53434  53.2168 127.9297 0001295  85.9000 274.2140 15.08837904 76437,6917.887,95.438,540.648,538.856,0.0
53434.0,STARLINK-4498,PAYLOAD,2023-12-23 14:14:50,15.08841072,0.0001385,53.2179,127.0366,86.6803,273.4347,7.3389e-05,8.8e-06,0.0,0 STARLINK-4498,1 53434U 22097AY  23357.59363749  .00000880  00000-0  73389-4 0  9995,2 53434  53.2179 127.0366 0001385  86.6803 273.4347 15.08841072 76954,6917.877,95.437,540.7,538.784,0.0
53434.0,STARLINK-4498,PAYLOAD,2023-12-24 12:30:11,15.08867508,0.0001286,53.2175,122.8718,112.5182,247.5946,0.00016551,2.349e-05,0.0,0 STARLINK-4498,1 53434U 22097AY  23358.52097207  .00002349  00000-0  16551-3 0  9991,2 53434  53.2175 122.8718 0001286 112.5182 247.5946 15.08867508 76604,6917.796,95.436,540.551,538.772,0.0
53434.0,STARLINK-4498,PAYLOAD,2023-12-24 14:05:36,15.0883694,0.0001117,53.2171,122.5776,71.4376,288.6737,2.8218e-05,1.61e-06,0.0,0 STARLINK-4498,1 53434U 22097AY  23358.58723272  .00000161  00000-0  28218-4 0  9999,2 53434  53.2171 122.5776 0001117  71.4376 288.6737 15.08836940 77108,6917.89,95.438,540.527,538.982,0.0
53434.0,STARLINK-4498,PAYLOAD,2023-12-24 18:51:46,15.08836181,9.93e-05,53.217,121.6852,95.6258,264.4847,-3.6427e-05,-8.67e-06,0.0,0 STARLINK-4498,1 53434U 22097AY  23358.78595281 -.00000867  00000-0 -36427-4 0  9994,2 53434  53.2170 121.6852 0000993  95.6258 264.4847 15.08836181 76649,6917.892,95.438,540.444,539.07,0.0
53434.0,STARLINK-4498,PAYLOAD,2023-12-25 12:21:01,15.08828746,0.0001355,53.2187,118.4139,104.1736,255.9407,-7.2814e-05,-1.446e-05,0.0,0 STARLINK-4498,1 53434U 22097AY  23359.51460364 -.00001446  00000-0 -72814-4 0  9993,2 53434  53.2187 118.4139 0001355 104.1736 255.9407 15.08828746 76756,6917.915,95.438,540.717,538.842,0.0
53434.0,STARLINK-4498,PAYLOAD,2023-12-25 13:56:24,15.0883051,0.000149,53.2185,118.1176,97.9507,262.1654,-3.6817e-05,-8.74e-06,0.0,0 STARLINK-4498,1 53434U 22097AY  23359.58084486 -.00000874  00000-0 -36817-4 0  9994,2 53434  53.2185 118.1176 0001490  97.9507 262.1654 15.08830510 77259,6917.909,95.438,540.805,538.744,0.0
53434.0,STARLINK-4498,PAYLOAD,2023-12-25 18:42:34,15.0883668,0.0001493,53.2187,117.22,80.0451,280.0709,6.6443e-06,-1.82e-06,0.0,0 STARLINK-4498,1 53434U 22097AY  23359.77956157 -.00000182  00000-0  66443-5 0  9998,2 53434  53.2187 117.2200 0001493  80.0451 280.0709 15.08836680 76795,6917.891,95.438,540.788,538.723,0.0
53434.0,STARLINK-4498,PAYLOAD,2023-12-26 13:47:11,15.08829463,0.0001203,53.216,113.6546,120.1691,239.942,0.00011563,1.552e-05,0.0,0 STARLINK-4498,1 53434U 22097AY  23360.57443830  .00001552  00000-0  11563-3 0  9999,2 53434  53.2160 113.6546 0001203 120.1691 239.9420 15.08829463 77403,6917.913,95.438,540.61,538.945,0.0
53434.0,STARLINK-4498,PAYLOAD,2023-12-26 15:22:34,15.08829806,0.000118,53.2166,113.3604,80.7711,279.3415,0.0001325,1.821e-05,0.0,0 STARLINK-4498,1 53434U 22097AY  23360.64068045  .00001821  00000-0  13250-3 0  9992,2 53434  53.2166 113.3604 0001180  80.7711 279.3415 15.08829806 77413,6917.912,95.438,540.593,538.96,0.0
53434.0,STARLINK-4498,PAYLOAD,2023-12-27 12:02:35,15.08839581,0.0001153,53.2161,109.4962,79.5248,280.5874,8.5099e-05,1.067e-05,0.0,0 STARLINK-4498,1 53434U 22097AY  23361.50180341  .00001067  00000-0  85099-4 0  9995,2 53434  53.2161 109.4962 0001153  79.5248 280.5874 15.08839581 77056,6917.882,95.438,540.544,538.949,0.0
